OBJECT_NAME,OBJECT_ID,EPOCH,MEAN_MOTION,ECCENTRICITY,INCLINATION,RA_OF_ASC_NODE,ARG_OF_PERICENTER,MEAN_ANOMALY,EPHEMERIS_TYPE,CLASSIFICATION_TYPE,NORAD_CAT_ID,ELEMENT_SET_NO,REV_AT_EPOCH,BSTAR,MEAN_MOTION_DOT,MEAN_MOTION_DDOT
STARLINK-36283,2025-304F,2026-06-26T06:44:34.736640,14.98335990,.00031434,70.0022,260.5346,260.1943,99.8861,0,U,67197,999,3015,.26708889E-3,.3096E-4,0
STARLINK-36267,2025-304G,2026-06-26T05:50:31.559712,14.98331790,.00032096,70.0014,260.8068,267.7985,92.2806,0,U,67198,999,3011,.1485467E-3,.168E-4,0
STARLINK-36268,2025-304H,2026-06-26T06:02:47.215968,14.98336870,.00032224,70.0021,260.8331,272.5798,87.4992,0,U,67199,999,3013,.14906193E-3,.1686E-4,0
STARLINK-36270,2025-304J,2026-06-26T07:02:51.301248,14.98332320,.00029538,70.0016,260.5870,260.6647,99.4178,0,U,67200,999,3015,.25519752E-3,.2953E-4,0
STARLINK-36262,2025-304K,2026-06-26T06:14:33.977472,14.98346156,.00030364,70.0025,260.8698,256.4140,103.6681,0,U,67201,999,3014,.10648939E-3,.1178E-4,0
STARLINK-36263,2025-304L,2026-06-26T05:56:32.233920,14.98332839,.00031036,70.0014,260.8219,268.5364,91.5439,0,U,67202,999,3014,.13932992E-3,.157E-4,0
STARLINK-36224,2025-304M,2026-06-25T13:44:07.360224,14.96609446,.00057982,70.0013,262.4714,156.4310,203.7115,0,U,67203,999,3004,-.46205754E-1,-.49707E-2,0
STARLINK-36185,2025-304N,2026-06-26T06:56:36.191328,14.98332656,.00033688,70.0013,260.5624,267.7006,92.3767,0,U,67204,999,3015,.12036128E-3,.1344E-4,0
STARLINK-36197,2025-304P,2026-06-26T06:38:34.069344,14.98338940,.00027558,70.0026,260.5197,271.7849,88.2994,0,U,67205,999,3012,.25607869E-3,.2965E-4,0
STARLINK-36056,2025-304Q,2026-06-26T06:14:48.629184,14.98324978,.00031591,70.0013,260.8628,265.9184,94.1614,0,U,67206,999,3011,.51187759E-3,.6019E-4,0
STARLINK-36225,2025-304R,2026-06-25T07:24:21.558240,15.00372095,.0014373,70.0000,263.1576,249.4942,110.4676,0,U,67207,999,3000,.82726E-1,.1133947E-1,0
STARLINK-36265,2025-304S,2026-06-26T06:08:33.407808,14.98334500,.00032021,70.0016,260.8529,268.6080,91.4712,0,U,67208,999,3014,.15197866E-3,.1721E-4,0
STARLINK-36226,2025-304T,2026-06-26T06:26:35.263680,14.98332198,.00034377,70.0014,260.8964,266.8405,93.2360,0,U,67209,999,3014,.10020534E-3,.1103E-4,0
STARLINK-36173,2025-304U,2026-06-26T07:14:37.765536,14.98349275,.00032535,70.0015,260.6040,267.8712,92.2074,0,U,67210,999,3015,.5908822E-3,.6968E-4,0
STARLINK-36280,2025-304V,2026-06-26T07:02:36.883680,14.98332199,.00028901,70.0016,260.5817,251.9799,108.1045,0,U,67211,999,3015,.13937279E-3,.157E-4,0
STARLINK-36213,2025-304W,2026-06-26T06:50:35.495520,14.98332437,.00034264,70.0016,260.5481,265.2674,94.8094,0,U,67212,999,3015,.73256943E-4,.781E-5,0
STARLINK-36199,2025-304X,2026-06-26T06:32:34.147680,14.98349232,.00037405,70.0018,260.5047,270.0058,90.0672,0,U,67213,999,3015,.33488494E-3,.3907E-4,0
STARLINK-36203,2025-304Y,2026-06-26T06:20:48.892992,14.98333778,.00031618,70.0014,260.8775,266.6813,93.3984,0,U,67214,999,3014,.13416686E-3,.1508E-4,0
STARLINK-36221,2025-304Z,2026-06-26T06:08:47.402880,14.98337829,.00035411,70.0004,260.8458,268.5575,91.5178,0,U,67215,999,3014,.22125604E-3,.2549E-4,0
STARLINK-36212,2025-304AA,2026-06-26T05:56:46.401792,14.98332061,.00033514,70.0020,260.8171,268.4084,91.6691,0,U,67216,999,3014,.13355993E-3,.1501E-4,0
STARLINK-36216,2025-304AB,2026-06-26T05:45:17.830944,14.96530994,.00071479,70.0014,260.7887,37.6455,322.5203,0,U,67217,999,3013,-.76779795E-1,-.815474E-2,0
STARLINK-36211,2025-304AC,2026-06-26T07:08:51.749088,14.98340514,.00033913,70.0001,260.5875,257.4571,102.6209,0,U,67218,999,3012,.6967267E-4,.739E-5,0
DISKSAT C,2025-305A,2026-06-25T23:28:51.122208,15.09944918,.00067018,45.0036,36.2824,222.7089,137.3267,0,U,67219,999,2865,.56911992E-3,.9149E-4,0
DISKSAT B,2025-305B,2026-06-25T23:19:34.328640,15.08791480,.00049548,45.0044,37.0535,218.9269,141.1251,0,U,67220,999,2864,.13151047E-3,.1855E-4,0
DISKSAT D,2025-305C,2026-06-25T23:12:41.945760,15.09094898,.0005633,45.0031,37.0233,224.8743,135.1678,0,U,67221,999,2864,.29337763E-3,.4482E-4,0
DISKSAT A,2025-305D,2026-06-25T14:22:42.371328,15.09702337,.00060525,45.0026,38.5204,224.1826,135.8568,0,U,67222,999,2858,.37545355E-3,.5907E-4,0
TJS-23,2025-306A,2026-06-25T13:53:41.609184,1.00267762,.00047792,5.5692,297.4432,180.5929,179.5701,0,U,67226,999,197,0,.3E-6,0
QPS-SAR-15 (SUKUNAMI-I),2025-307A,2026-06-26T07:13:17.382432,14.99050243,.00091493,42.0046,177.8487,50.0519,310.1109,0,U,67228,999,2805,.34244554E-3,.4045E-4,0
SPACEMOBILE-006,2025-309A,2026-06-25T17:32:04.144128,15.18578699,.00114057,52.9961,292.4994,152.8383,207.3209,0,U,67232,999,2789,.19614854E-3,.3791E-4,0
OBZOR-R 1,2025-310A,2026-06-25T23:22:00.188256,14.75888126,.00011751,97.9639,184.1334,94.3084,265.8259,0,U,67234,999,2692,.25500628E-4,.125E-5,0
