STARLINK-36283          
1 67197U 25304F   26177.28095760  .00003096  00000+0  26709-3 0  9998
2 67197  70.0022 260.5346 0003143 260.1943  99.8861 14.98335990 30156
STARLINK-36267          
1 67198U 25304G   26177.24342083  .00001680  00000+0  14855-3 0  9994
2 67198  70.0014 260.8068 0003209 267.7985  92.2806 14.98331790 30110
STARLINK-36268          
1 67199U 25304H   26177.25193537  .00001686  00000+0  14906-3 0  9997
2 67199  70.0021 260.8331 0003222 272.5798  87.4992 14.98336870 30131
STARLINK-36270          
1 67200U 25304J   26177.29364932  .00002953  00000+0  25520-3 0  9995
2 67200  70.0016 260.5870 0002953 260.6647  99.4178 14.98332320 30151
STARLINK-36262          
1 67201U 25304K   26177.26011548  .00001178  00000+0  10649-3 0  9999
2 67201  70.0025 260.8698 0003036 256.4140 103.6681 14.98346156 30145
STARLINK-36263          
1 67202U 25304L   26177.24759530  .00001570  00000+0  13933-3 0  9993
2 67202  70.0014 260.8219 0003103 268.5364  91.5439 14.98332839 30149
STARLINK-36224          
1 67203U 25304M   26176.57230741 -.00497070  00000+0 -46206-1 0  9990
2 67203  70.0013 262.4714 0005798 156.4310 203.7115 14.96609446 30041
STARLINK-36185          
1 67204U 25304N   26177.28930777  .00001344  00000+0  12036-3 0  9995
2 67204  70.0013 260.5624 0003368 267.7006  92.3767 14.98332656 30155
STARLINK-36197          
1 67205U 25304P   26177.27678321  .00002965  00000+0  25608-3 0  9998
2 67205  70.0026 260.5197 0002755 271.7849  88.2994 14.98338940 30129
STARLINK-36056          
1 67206U 25304Q   26177.26028506  .00006019  00000+0  51188-3 0  9998
2 67206  70.0013 260.8628 0003159 265.9184  94.1614 14.98324978 30114
STARLINK-36225          
1 67207U 25304R   26176.30858285  .01133947  00000+0  82726-1 0  9990
2 67207  70.0000 263.1576 0014373 249.4942 110.4676 15.00372095 30003
STARLINK-36265          
1 67208U 25304S   26177.25594222  .00001721  00000+0  15198-3 0  9998
2 67208  70.0016 260.8529 0003202 268.6080  91.4712 14.98334500 30147
STARLINK-36226          
1 67209U 25304T   26177.26846370  .00001103  00000+0  10021-3 0  9998
2 67209  70.0014 260.8964 0003437 266.8405  93.2360 14.98332198 30140
STARLINK-36173          
1 67210U 25304U   26177.30182599  .00006968  00000+0  59088-3 0  9991
2 67210  70.0015 260.6040 0003253 267.8712  92.2074 14.98349275 30150
STARLINK-36280          
1 67211U 25304V   26177.29348245  .00001570  00000+0  13937-3 0  9999
2 67211  70.0016 260.5817 0002890 251.9799 108.1045 14.98332199 30150
STARLINK-36213          
1 67212U 25304W   26177.28513305  .00000781  00000+0  73257-4 0  9995
2 67212  70.0016 260.5481 0003426 265.2674  94.8094 14.98332437 30154
STARLINK-36199          
1 67213U 25304X   26177.27261745  .00003907  00000+0  33488-3 0  9997
2 67213  70.0018 260.5047 0003740 270.0058  90.0672 14.98349232 30155
STARLINK-36203          
1 67214U 25304Y   26177.26445478  .00001508  00000+0  13417-3 0  9999
2 67214  70.0014 260.8775 0003161 266.6813  93.3984 14.98333778 30149
STARLINK-36221          
1 67215U 25304Z   26177.25610420  .00002549  00000+0  22126-3 0  9993
2 67215  70.0004 260.8458 0003541 268.5575  91.5178 14.98337829 30141
STARLINK-36212          
1 67216U 25304AA  26177.24775928  .00001501  00000+0  13356-3 0  9990
2 67216  70.0020 260.8171 0003351 268.4084  91.6691 14.98332061 30149
STARLINK-36216          
1 67217U 25304AB  26177.23978971 -.00815474  00000+0 -76780-1 0  9995
2 67217  70.0014 260.7887 0007147  37.6455 322.5203 14.96530994 30138
STARLINK-36211          
1 67218U 25304AC  26177.29782117  .00000739  00000+0  69673-4 0  9991
2 67218  70.0001 260.5875 0003391 257.4571 102.6209 14.98340514 30129
DISKSAT C               
1 67219U 25305A   26176.97836947  .00009149  00000+0  56912-3 0  9993
2 67219  45.0036  36.2824 0006701 222.7089 137.3267 15.09944918 28654
DISKSAT B               
1 67220U 25305B   26176.97192510  .00001855  00000+0  13151-3 0  9990
2 67220  45.0044  37.0535 0004954 218.9269 141.1251 15.08791480 28646
DISKSAT D               
1 67221U 25305C   26176.96715215  .00004482  00000+0  29338-3 0  9996
2 67221  45.0031  37.0233 0005633 224.8743 135.1678 15.09094898 28642
DISKSAT A               
1 67222U 25305D   26176.59910152  .00005907  00000+0  37545-3 0  9995
2 67222  45.0026  38.5204 0006052 224.1826 135.8568 15.09702337 28584
TJS-23                  
1 67226U 25306A   26176.57895381  .00000030  00000+0  00000+0 0  9998
2 67226   5.5692 297.4432 0004779 180.5929 179.5701  1.00267762  1972
QPS-SAR-15 (SUKUNAMI-I) 
1 67228U 25307A   26177.30089563  .00004045  00000+0  34245-3 0  9992
2 67228  42.0046 177.8487 0009149  50.0519 310.1109 14.99050243 28055
SPACEMOBILE-006         
1 67232U 25309A   26176.73060352  .00003791  00000+0  19615-3 0  9991
2 67232  52.9961 292.4994 0011405 152.8383 207.3209 15.18578699 27892
OBZOR-R 1               
1 67234U 25310A   26176.97361329  .00000125  00000+0  25501-4 0  9999
2 67234  97.9639 184.1334 0001175  94.3084 265.8259 14.75888126 26929
